{"type": "FeatureCollection", "features": [ {"type": "Feature", "properties": {"norad_id": 29795, "name": "FENGYUN 1C DEB", "group": "fengyun-1c-debris", "lat": -8.40129450316031, "lon": -65.45444823204127, "alt_km": 919.4010861800407, "timestamp": "2025-12-12T11:38:31.683298+00:00", "meta": {"OBJECT_NAME": "FENGYUN 1C DEB", "OBJECT_ID": "1999-025CM", "EPOCH": "2025-12-11T14:20:54.355776", "MEAN_MOTION": 13.92908636, "ECCENTRICITY": 0.01110369, "INCLINATION": 98.8703, "RA_OF_ASC_NODE": 115.0169, "ARG_OF_PERICENTER": 279.3658, "MEAN_ANOMALY": 143.697, "EPHEMERIS_TYPE": 0, "CLASSIFICATION_TYPE": "U", "NORAD_CAT_ID": 29795, "ELEMENT_SET_NO": 999, "REV_AT_EPOCH": 96049, "BSTAR": 0.00031937448, "MEAN_MOTION_DOT": 3.93e-06, "MEAN_MOTION_DDOT": 0}, "tle": {"line1": "1 29795U 99025CM  25345.59785134  .00000393  00000+0  31937-3 0  9998", "line2": "2 29795  98.8703 115.0169 0111036 279.3658 143.6970 13.92908636960499"}}, "geometry": {"type": "Point", "coordinates": [-65.45444823204127, -8.40129450316031]}}, {"type": "Feature", "properties": {"norad_id": 29796, "name": "FENGYUN 1C DEB", "group": "fengyun-1c-debris", "lat": 24.63923463361222, "lon": -137.53487758344704, "alt_km": 865.5429234853154, "timestamp": "2025-12-12T11:38:31.683308+00:00", "meta": {"OBJECT_NAME": "FENGYUN 1C DEB", "OBJECT_ID": "1999-025CN", "EPOCH": "2025-12-12T02:39:41.570784", "MEAN_MOTION": 14.1233361, "ECCENTRICITY": 0.0051848, "INCLINATION": 98.8649, "RA_OF_ASC_NODE": 37.9902, "ARG_OF_PERICENTER": 269.687, "MEAN_ANOMALY": 144.3195, "EPHEMERIS_TYPE": 0, "CLASSIFICATION_TYPE": "U", "NORAD_CAT_ID": 29796, "ELEMENT_SET_NO": 999, "REV_AT_EPOCH": 97052, "BSTAR": 0.00091369, "MEAN_MOTION_DOT": 1.66e-05, "MEAN_MOTION_DDOT": 0}, "tle": {"line1": "1 29796U 99025CN  25346.11089781  .00001660  00000+0  91369-3 0  9996", "line2": "2 29796  98.8649  37.9902 0051848 269.6870 144.3195 14.12333610970527"}}, "geometry": {"type": "Point", "coordinates": [-137.53487758344704, 24.63923463361222]}}, {"type": "Feature", "properties": {"norad_id": 29798, "name": "FENGYUN 1C DEB", "group": "fengyun-1c-debris", "lat": 12.584456065809709, "lon": -127.51826009068235, "alt_km": 917.9800663551541, "timestamp": "2025-12-12T11:38:31.683319+00:00", "meta": {"OBJECT_NAME": "FENGYUN 1C DEB", "OBJECT_ID": "1999-025CQ", "EPOCH": "2025-12-12T04:16:47.711136", "MEAN_MOTION": 13.99565882, "ECCENTRICITY": 0.0111578, "INCLINATION": 99.2953, "RA_OF_ASC_NODE": 50.0751, "ARG_OF_PERICENTER": 274.017, "MEAN_ANOMALY": 149.6014, "EPHEMERIS_TYPE": 0, "CLASSIFICATION_TYPE": "U", "NORAD_CAT_ID": 29798, "ELEMENT_SET_NO": 999, "REV_AT_EPOCH": 95917, "BSTAR": 0.0021263, "MEAN_MOTION_DOT": 3.229e-05, "MEAN_MOTION_DDOT": 0}, "tle": {"line1": "1 29798U 99025CQ  25346.17832999  .00003229  00000+0  21263-2 0  9999", "line2": "2 29798  99.2953  50.0751 0111578 274.0170 149.6014 13.99565882959178"}}, "geometry": {"type": "Point", "coordinates": [-127.51826009068235, 12.584456065809709]}}, {"type": "Feature", "properties": {"norad_id": 29800, "name": "FENGYUN 1C DEB", "group": "fengyun-1c-debris", "lat": -21.501600743683703, "lon": 11.41225260847927, "alt_km": 936.6832094517567, "timestamp": "2025-12-12T11:38:31.683329+00:00", "meta": {"OBJECT_NAME": "FENGYUN 1C DEB", "OBJECT_ID": "1999-025CS", "EPOCH": "2025-12-10T23:50:01.654944", "MEAN_MOTION": 13.98548648, "ECCENTRICITY": 0.01334633, "INCLINATION": 98.2897, "RA_OF_ASC_NODE": 6.7701, "ARG_OF_PERICENTER": 232.1976, "MEAN_ANOMALY": 156.9457, "EPHEMERIS_TYPE": 0, "CLASSIFICATION_TYPE": "U", "NORAD_CAT_ID": 29800, "ELEMENT_SET_NO": 999, "REV_AT_EPOCH": 95552, "BSTAR": 0.0026591185, "MEAN_MOTION_DOT": 4.076e-05, "MEAN_MOTION_DDOT": 0}, "tle": {"line1": "1 29800U 99025CS  25344.99307471  .00004076  00000+0  26591-2 0  9993", "line2": "2 29800  98.2897   6.7701 0133463 232.1976 156.9457 13.98548648955524"}}, "geometry": {"type": "Point", "coordinates": [11.41225260847927, -21.501600743683703]}}, {"type": "Feature", "properties": {"norad_id": 29801, "name": "FENGYUN 1C DEB", "group": "fengyun-1c-debris", "lat": -46.05855888739409, "lon": 58.25875924718748, "alt_km": 723.3977343062297, "timestamp": "2025-12-12T11:38:31.683339+00:00", "meta": {"OBJECT_NAME": "FENGYUN 1C DEB", "OBJECT_ID": "1999-025CT", "EPOCH": "2025-12-12T04:37:08.929344", "MEAN_MOTION": 14.35896094, "ECCENTRICITY": 0.010282, "INCLINATION": 98.7949, "RA_OF_ASC_NODE": 247.2047, "ARG_OF_PERICENTER": 269.0263, "MEAN_ANOMALY": 246.6543, "EPHEMERIS_TYPE": 0, "CLASSIFICATION_TYPE": "U", "NORAD_CAT_ID": 29801, "ELEMENT_SET_NO": 999, "REV_AT_EPOCH": 98933, "BSTAR": 0.00030294, "MEAN_MOTION_DOT": 8.84e-06, "MEAN_MOTION_DDOT": 0}, "tle": {"line1": "1 29801U 99025CT  25346.19246446  .00000884  00000+0  30294-3 0  9991", "line2": "2 29801  98.7949 247.2047 0102820 269.0263 246.6543 14.35896094989336"}}, "geometry": {"type": "Point", "coordinates": [58.25875924718748, -46.05855888739409]}}, {"type": "Feature", "properties": {"norad_id": 29802, "name": "FENGYUN 1C DEB", "group": "fengyun-1c-debris", "lat": -5.430494856135427, "lon": -85.23794086005051, "alt_km": 712.9647394453877, "timestamp": "2025-12-12T11:38:31.683350+00:00", "meta": {"OBJECT_NAME": "FENGYUN 1C DEB", "OBJECT_ID": "1999-025CU", "EPOCH": "2025-12-11T20:34:43.750848", "MEAN_MOTION": 14.62283872, "ECCENTRICITY": 0.00370971, "INCLINATION": 98.6191, "RA_OF_ASC_NODE": 94.9337, "ARG_OF_PERICENTER": 341.5169, "MEAN_ANOMALY": 141.9291, "EPHEMERIS_TYPE": 0, "CLASSIFICATION_TYPE": "U", "NORAD_CAT_ID": 29802, "ELEMENT_SET_NO": 999, "REV_AT_EPOCH": 98460, "BSTAR": 0.0036991033, "MEAN_MOTION_DOT": 0.00018842, "MEAN_MOTION_DDOT": 0}, "tle": {"line1": "1 29802U 99025CU  25345.85745082  .00018842  00000+0  36991-2 0  9996", "line2": "2 29802  98.6191  94.9337 0037097 341.5169 141.9291 14.62283872984604"}}, "geometry": {"type": "Point", "coordinates": [-85.23794086005051, -5.430494856135427]}}, {"type": "Feature", "properties": {"norad_id": 29804, "name": "FENGYUN 1C DEB", "group": "fengyun-1c-debris", "lat": -27.568455514965166, "lon": 170.06022320843806, "alt_km": 889.7401470112036, "timestamp": "2025-12-12T11:38:31.683360+00:00", "meta": {"OBJECT_NAME": "FENGYUN 1C DEB", "OBJECT_ID": "1999-025CW", "EPOCH": "2025-12-12T00:42:45.146016", "MEAN_MOTION": 14.04322314, "ECCENTRICITY": 0.0097208, "INCLINATION": 98.8056, "RA_OF_ASC_NODE": 354.2605, "ARG_OF_PERICENTER": 303.8502, "MEAN_ANOMALY": 124.0526, "EPHEMERIS_TYPE": 0, "CLASSIFICATION_TYPE": "U", "NORAD_CAT_ID": 29804, "ELEMENT_SET_NO": 999, "REV_AT_EPOCH": 96884, "BSTAR": 0.00018272, "MEAN_MOTION_DOT": 2.59e-06, "MEAN_MOTION_DDOT": 0}, "tle": {"line1": "1 29804U 99025CW  25346.02968919  .00000259  00000+0  18272-3 0  9990", "line2": "2 29804  98.8056 354.2605 0097208 303.8502 124.0526 14.04322314968842"}}, "geometry": {"type": "Point", "coordinates": [170.06022320843806, -27.568455514965166]}}, {"type": "Feature", "properties": {"norad_id": 29805, "name": "FENGYUN 1C DEB", "group": "fengyun-1c-debris", "lat": 39.005775831120594, "lon": 30.002907429759492, "alt_km": 1123.0130388915268, "timestamp": "2025-12-12T11:38:31.683369+00:00", "meta": {"OBJECT_NAME": "FENGYUN 1C DEB", "OBJECT_ID": "1999-025CX", "EPOCH": "2025-12-12T02:41:47.687136", "MEAN_MOTION": 13.72656751, "ECCENTRICITY": 0.0187983, "INCLINATION": 99.4552, "RA_OF_ASC_NODE": 37.3919, "ARG_OF_PERICENTER": 231.4064, "MEAN_ANOMALY": 127.0118, "EPHEMERIS_TYPE": 0, "CLASSIFICATION_TYPE": "U", "NORAD_CAT_ID": 29805, "ELEMENT_SET_NO": 999, "REV_AT_EPOCH": 94694, "BSTAR": 0.00023953, "MEAN_MOTION_DOT": 2.04e-06, "MEAN_MOTION_DDOT": 0}, "tle": {"line1": "1 29805U 99025CX  25346.11235749  .00000204  00000+0  23953-3 0  9991", "line2": "2 29805  99.4552  37.3919 0187983 231.4064 127.0118 13.72656751946943"}}, "geometry": {"type": "Point", "coordinates": [30.002907429759492, 39.005775831120594]}}, {"type": "Feature", "properties": {"norad_id": 29806, "name": "FENGYUN 1C DEB", "group": "fengyun-1c-debris", "lat": -29.57047562653844, "lon": 177.29037595445934, "alt_km": 843.7070707008052, "timestamp": "2025-12-12T11:38:31.683379+00:00", "meta": {"OBJECT_NAME": "FENGYUN 1C DEB", "OBJECT_ID": "1999-025CY", "EPOCH": "2025-12-12T00:44:10.806432", "MEAN_MOTION": 14.12004225, "ECCENTRICITY": 0.0027587, "INCLINATION": 98.7127, "RA_OF_ASC_NODE": 1.8404, "ARG_OF_PERICENTER": 253.9272, "MEAN_ANOMALY": 167.5671, "EPHEMERIS_TYPE": 0, "CLASSIFICATION_TYPE": "U", "NORAD_CAT_ID": 29806, "ELEMENT_SET_NO": 999, "REV_AT_EPOCH": 97129, "BSTAR": 0.00075143, "MEAN_MOTION_DOT": 1.337e-05, "MEAN_MOTION_DDOT": 0}, "tle": {"line1": "1 29806U 99025CY  25346.03068063  .00001337  00000+0  75143-3 0  9992", "line2": "2 29806  98.7127   1.8404 0027587 253.9272 167.5671 14.12004225971299"}}, "geometry": {"type": "Point", "coordinates": [177.29037595445934, -29.57047562653844]}}, {"type": "Feature", "properties": {"norad_id": 29807, "name": "FENGYUN 1C DEB", "group": "fengyun-1c-debris", "lat": -79.43446413466116, "lon": 46.82089651961502, "alt_km": 839.3715966523823, "timestamp": "2025-12-12T11:38:31.683389+00:00", "meta": {"OBJECT_NAME": "FENGYUN 1C DEB", "OBJECT_ID": "1999-025CZ", "EPOCH": "2025-12-12T00:06:08.438976", "MEAN_MOTION": 14.08656896, "ECCENTRICITY": 0.0079526, "INCLINATION": 98.7549, "RA_OF_ASC_NODE": 350.6467, "ARG_OF_PERICENTER": 334.0311, "MEAN_ANOMALY": 25.6878, "EPHEMERIS_TYPE": 0, "CLASSIFICATION_TYPE": "U", "NORAD_CAT_ID": 29807, "ELEMENT_SET_NO": 999, "REV_AT_EPOCH": 97084, "BSTAR": 0.00042264, "MEAN_MOTION_DOT": 7.06e-06, "MEAN_MOTION_DDOT": 0}, "tle": {"line1": "1 29807U 99025CZ  25346.00426434  .00000706  00000+0  42264-3 0  9997", "line2": "2 29807  98.7549 350.6467 0079526 334.0311  25.6878 14.08656896970842"}}, "geometry": {"type": "Point", "coordinates": [46.82089651961502, -79.43446413466116]}}]}